[{"OBJECT_NAME":"STARLINK-11588 [DTC]","OBJECT_ID":"2025-057N","EPOCH":"2026-03-09T21:52:29.118432","MEAN_MOTION":15.70893396,"ECCENTRICITY":0.00010565,"INCLINATION":43.0003,"RA_OF_ASC_NODE":263.0869,"ARG_OF_PERICENTER":294.7662,"MEAN_ANOMALY":65.3095,"EPHEMERIS_TYPE":0,"CLASSIFICATION_TYPE":"U","NORAD_CAT_ID":63319,"ELEMENT_SET_NO":999,"REV_AT_EPOCH":5721,"BSTAR":0.0023805764,"MEAN_MOTION_DOT":0.00317697,"MEAN_MOTION_DDOT":0},{"OBJECT_NAME":"FENGYUN 1C DEB","OBJECT_ID":"1999-025BHM","EPOCH":"2026-03-07T15:41:41.908992","MEAN_MOTION":15.52424712,"ECCENTRICITY":0.00874412,"INCLINATION":97.8053,"RA_OF_ASC_NODE":37.5391,"ARG_OF_PERICENTER":68.6008,"MEAN_ANOMALY":292.4545,"EPHEMERIS_TYPE":0,"CLASSIFICATION_TYPE":"U","NORAD_CAT_ID":31159,"ELEMENT_SET_NO":999,"REV_AT_EPOCH":844,"BSTAR":0.0020496514,"MEAN_MOTION_DOT":0.00149592,"MEAN_MOTION_DDOT":0}]
